EYESAT-1 (AO-27) 1 22825U 93061C 16349.12125796 -.00000001 00000-0 17078-4 0 9993 2 22825 98.7858 306.7055 0008926 145.9026 214.2730 14.29979804210953 CUTE-1 (CO-55) 1 27844U 03031E 16349.02274461 .00000066 00000-0 49751-4 0 9993 2 27844 98.6914 354.7200 0010123 157.5879 202.5743 14.22001456698005 CUBESAT XI-IV (CO-57) 1 27848U 03031J 16348.55036456 .00000054 00000-0 44496-4 0 9992 2 27848 98.7010 354.4315 0009844 167.3814 192.7612 14.21621118697823 CUBESAT XI 5 1 28895U 05043F 16348.66645112 .00000177 00000-0 42816-4 0 9997 2 28895 97.8437 153.7463 0017132 15.2617 344.9099 14.63312857593350 CUTE-1.7+APD II (CO-65) 1 32785U 08021C 16349.22704152 .00000264 00000-0 34594-4 0 9993 2 32785 97.5846 15.7815 0014512 64.3578 295.9136 14.87752809467394 COMPASS-1 1 32787U 08021E 16349.17367177 .00000635 00000-0 67320-4 0 9996 2 32787 97.5824 23.4161 0013543 41.3908 318.8335 14.92349536467905 AAUSAT-II 1 32788U 08021F 16348.67698724 .00000580 00000-0 60127-4 0 9993 2 32788 97.5825 25.4446 0012862 37.2011 323.0097 14.93594326467988 DELFI-C3 (DO-64) 1 32789U 08021G 16349.39849741 .00001118 00000-0 84829-4 0 9994 2 32789 97.5841 45.3577 0013236 16.1460 344.0185 15.04173873469080 CANX-2 1 32790U 08021H 16348.63567993 .00000247 00000-0 32937-4 0 9993 2 32790 97.5813 13.7272 0015245 67.3272 292.9555 14.87494416467251 SEEDS II (CO-66) 1 32791U 08021J 16349.04413091 .00000454 00000-0 52518-4 0 9996 2 32791 97.5840 19.3763 0014647 52.9317 307.3238 14.90028955467573 SWISSCUBE 1 35932U 09051B 16349.34009998 .00000153 00000-0 45774-4 0 9992 2 35932 98.4706 118.8435 0008821 99.5458 260.6736 14.55929998383428 BEESAT 1 35933U 09051C 16348.86116659 .00000128 00000-0 39862-4 0 9995 2 35933 98.4737 119.5548 0006982 111.7638 248.4302 14.56059197383451 ITUPSAT 1 1 35935U 09051E 16349.09095533 .00000115 00000-0 37573-4 0 9993 2 35935 98.4847 120.0394 0009315 105.1880 255.0348 14.55260552383317 TISAT 1 1 36799U 10035E 16349.29941714 .00000451 00000-0 52652-4 0 9997 2 36799 98.0447 102.5608 0011954 208.8654 151.1903 14.90149154348242 M-CUBED & EXP-1 PRIME 1 37855U 11061F 16349.35509661 .00001386 00000-0 81835-4 0 9992 2 37855 101.7144 120.9300 0183019 266.9720 91.0534 15.02206782279033 HORYU 2 1 38340U 12025D 16348.51916538 .00000281 00000-0 49666-4 0 9994 2 38340 98.3689 339.9946 0012081 156.9360 203.2393 14.75207912245919 STRAND-1 1 39090U 13009E 16349.52004819 .00000045 00000-0 31196-4 0 9999 2 39090 98.5668 190.5116 0010066 123.9512 236.2631 14.34937496198993 BRITE-AUSTRIA 1 39091U 13009F 16349.12420991 .00000005 00000-0 17135-4 0 9992 2 39091 98.5627 189.5710 0011287 132.7567 227.4569 14.35006786198959 UNIBRITE 1 39092U 13009G 16349.10730934 .00000020 00000-0 22559-4 0 9995 2 39092 98.5634 189.2669 0010248 126.1016 234.1119 14.34879791198937 AIST-2 1 39133U 13015D 16349.54050387 .00000160 00000-0 24045-4 0 9990 2 39133 64.8723 149.0143 0025946 312.8008 47.0930 15.04123500200524 SOMP 1 39134U 13015E 16349.08625301 .00001300 00000-0 75128-4 0 9999 2 39134 64.8701 103.5221 0020800 305.7716 54.1475 15.17000536201390 BEESAT-2 1 39136U 13015G 16349.51554310 .00001419 00000-0 86861-4 0 9997 2 39136 64.8699 110.3691 0021831 306.4320 53.4791 15.14454321201305 NEE-01 PEGASUS 1 39151U 13018B 16349.21813977 .00000199 00000-0 33657-4 0 9990 2 39151 97.9919 75.8790 0015878 290.0941 69.8562 14.79609359196189 CUBEBUG-1 (CAPITAN BETO) 1 39153U 13018D 16349.19729232 .00000260 00000-0 41405-4 0 9998 2 39153 97.9933 76.4630 0015780 288.6158 71.3340 14.80053359196224 ESTCUBE 1 1 39161U 13021C 16349.21772484 .00000272 00000-0 51554-4 0 9990 2 39161 98.0406 71.5529 0010035 22.3951 337.7700 14.71798813193547 POPACS 1 1 39268U 13055D 16348.07174046 .00004226 00000-0 12186-3 0 9998 2 39268 81.0033 202.0569 0660980 44.5782 320.6640 14.28753100165596 POPACS 2 1 39269U 13055E 16349.06544307 .00002017 00000-0 58293-4 0 9996 2 39269 81.0164 212.4873 0707374 71.9230 295.7658 14.18552509165046 POPACS 3 1 39270U 13055F 16348.34158233 .00001928 00000-0 59586-4 0 9993 2 39270 81.0176 219.3744 0729942 93.3288 275.1590 14.12287369164533 PHONESAT 2.4 1 39381U 13064B 16349.33668701 .00118165 11469-4 39470-3 0 9998 2 39381 40.4859 333.8998 0010951 188.8371 171.2270 15.89438117173267 FIREFLY 1 39404U 13064AA 16348.51578532 .00017827 00000-0 18666-3 0 9997 2 39404 40.5042 24.8360 0003491 170.7618 189.3270 15.63922484172089 ZACUBE-1 (TSHEPISOSAT) 1 39417U 13066B 16349.19466855 .00000279 00000-0 41902-4 0 9995 2 39417 97.6565 34.1524 0060227 153.6807 206.7487 14.80575581165404 WNISAT-1 1 39423U 13066H 16349.55266616 .00000228 00000-0 55547-4 0 9999 2 39423 97.6709 347.3635 0174835 295.8971 62.4289 14.52781555162420 TRITON-1 1 39427U 13066M 16348.64749168 .00000241 00000-0 46912-4 0 9991 2 39427 97.6505 10.3387 0113622 222.4572 136.7804 14.67339868163835 GOMX 1 1 39430U 13066Q 16349.52657132 .00000222 00000-0 49999-4 0 9999 2 39430 97.6631 356.6992 0150758 266.1795 92.2158 14.58751429163008 BRITE-PL 1 39431U 13066R 16348.84285977 .00000114 00000-0 35031-4 0 9990 2 39431 97.6873 337.2677 0202131 329.9353 29.0359 14.46788721161644 HUMSAT-D 1 39433U 13066T 16349.13373304 .00000662 00000-0 71585-4 0 9999 2 39433 97.6778 51.5073 0032765 111.4067 249.0652 14.91173469166435 EAGLE 2 1 39436U 13066W 16349.25674705 .00012186 00000-0 43213-3 0 9994 2 39436 97.7113 81.5072 0013046 21.4588 338.7195 15.29158072168326 CUBEBUG-2 (LO-74) 1 39440U 13066AA 16348.55305513 .00000271 00000-0 45202-4 0 9992 2 39440 97.6518 24.2226 0080993 181.4512 178.6476 14.75325303164729 NEE-02 KRYSAOR 1 39441U 13066AB 16349.06851913 .00000171 00000-0 31707-4 0 9994 2 39441 97.6495 23.6917 0082263 182.5709 177.5090 14.74526484164706 FUNCUBE-1 (AO-73) 1 39444U 13066AE 16348.72353328 .00000364 00000-0 51832-4 0 9991 2 39444 97.6579 34.5235 0059457 152.6498 207.7867 14.81281402164151 UWE-3 1 39446U 13066AG 16348.63839804 .00000262 00000-0 41867-4 0 9995 2 39446 97.6532 28.7318 0070994 168.5113 191.7739 14.77854982163791 BRITE-TORONTO 1 40020U 14033L 16349.52311432 .00000045 00000-0 16375-4 0 9996 2 40020 97.8609 222.2811 0087293 193.4251 166.4631 14.66335404133021 DUCHIFAT-1 1 40021U 14033M 16348.78630640 .00000534 00000-0 61740-4 0 9998 2 40021 97.9242 255.6340 0012766 186.0719 174.0345 14.89641374134998 FLOCK 1C-10 1 40023U 14033P 16349.33853403 .00001298 00000-0 14608-3 0 9994 2 40023 97.9267 255.5114 0012119 191.7995 168.2920 14.88376651135005 NANOSATC-BR1 1 40024U 14033Q 16348.70664184 .00000484 00000-0 57437-4 0 9995 2 40024 97.9210 254.7170 0012049 186.5446 173.5615 14.89002786134940 QB50P1 1 40025U 14033R 16348.79123477 .00000364 00000-0 45470-4 0 9991 2 40025 97.9200 254.1017 0012252 188.3465 171.7549 14.88246344134913 FLOCK 1C-7 1 40026U 14033S 16349.51307019 .00001003 00000-0 11229-3 0 9994 2 40026 97.9290 256.1681 0010540 187.4201 172.6864 14.89095700135064 FLOCK 1C-1 1 40027U 14033T 16349.31614914 .00000824 00000-0 94717-4 0 9992 2 40027 97.9299 255.6609 0011857 187.3417 172.7620 14.88483200135019 POPSAT-HIP-1 1 40028U 14033U 16349.47937136 .00000490 00000-0 59265-4 0 9992 2 40028 97.9223 255.0070 0013362 185.2491 174.8549 14.88123884135006 FLOCK 1C-2 1 40029U 14033V 16349.54730374 .00001058 00000-0 11990-3 0 9999 2 40029 97.9271 255.7667 0013602 184.8327 175.2739 14.88458876135030 FLOCK 1C-4 1 40031U 14033X 16349.34803040 .00000722 00000-0 83857-4 0 9990 2 40031 97.9290 255.5823 0014076 183.6375 176.4719 14.88390508134994 QB50P2 1 40032U 14033Y 16348.78386126 .00000356 00000-0 45115-4 0 9997 2 40032 97.9180 253.3964 0011772 182.4595 177.6565 14.87808374134879 FLOCK 1C-11 1 40033U 14033Z 16349.32416377 .00001323 00000-0 14354-3 0 9996 2 40033 97.9279 256.4807 0011620 178.1376 181.9866 14.89841476135066 ANTELSAT 1 40034U 14033AA 16349.18634055 .00000253 00000-0 45507-4 0 9992 2 40034 97.8816 232.5785 0059349 166.3898 193.8928 14.73564006133682 FLOCK 1C-9 1 40035U 14033AB 16349.27342744 .00001172 00000-0 13209-3 0 9998 2 40035 97.9294 255.7725 0011202 178.1171 182.0084 14.88506702134999 FLOCK 1C-6 1 40036U 14033AC 16349.30740146 .00000834 00000-0 95499-4 0 9997 2 40036 97.9329 255.9645 0011444 177.2867 182.8431 14.88607195135018 PERSEUS-M2 1 40037U 14033AD 16349.51470404 .00000154 00000-0 23799-4 0 9997 2 40037 97.9213 253.1068 0014241 184.9646 175.1430 14.86147435134880 FLOCK 1C-5 1 40038U 14033AE 16349.31493297 .00000941 00000-0 10687-3 0 9996 2 40038 97.9308 255.8178 0013658 177.6279 182.5023 14.88620590135004 PERSEUS-M1 1 40039U 14033AF 16348.79441738 .00000156 00000-0 24278-4 0 9991 2 40039 97.9224 252.0410 0014127 182.8686 177.2450 14.85772816134754 FLOCK 1C-8 1 40040U 14033AG 16349.34162041 .00001209 00000-0 12954-3 0 9999 2 40040 97.9314 257.3174 0012315 166.6182 193.5348 14.90515426135092 FLOCK 1C-3 1 40041U 14033AH 16349.30605390 .00000862 00000-0 99212-4 0 9992 2 40041 97.9322 255.6564 0012536 174.2062 185.9303 14.88303026134984 POLYITAN-1 1 40042U 14033AJ 16349.32205465 .00000441 00000-0 54315-4 0 9992 2 40042 97.9273 254.5569 0014782 175.3352 184.8005 14.87846252134936 TIGRISAT 1 40043U 14033AK 16348.64050192 .00000182 00000-0 34670-4 0 9996 2 40043 97.8799 232.6428 0060435 169.8084 190.4365 14.73881922133508 LEMUR-1 1 40044U 14033AL 16349.21070373 .00000181 00000-0 34627-4 0 9995 2 40044 97.8798 232.9966 0059613 168.9003 191.3537 14.73705224133584 AEROCUBE 6A 1 40045U 14033AM 16349.24412143 .00000441 00000-0 71975-4 0 9990 2 40045 97.8889 233.9217 0058501 164.0612 196.2455 14.74628849133462 AEROCUBE 6B 1 40046U 14033AN 16349.17631214 .00000414 00000-0 68044-4 0 9998 2 40046 97.8884 233.8029 0057740 163.8852 196.4210 14.74627098133595 UKUBE-1 1 40074U 14037F 16349.33662891 .00000550 00000-0 74345-4 0 9998 2 40074 98.3382 90.1425 0003682 297.2550 62.8299 14.83317898131777 BRITE-PL 2 1 40119U 14049B 16349.20755408 .00000162 00000-0 26016-4 0 9995 2 40119 97.9496 69.9970 0016943 337.0818 22.9638 14.84046871125724 FIREBIRD 4 1 40378U 15003C 16349.44045746 .00002779 00000-0 12485-3 0 9996 2 40378 99.1051 130.9380 0138950 253.8314 104.7583 15.14127147103044 GRIFEX 1 40379U 15003D 16349.54197989 .00002655 00000-0 12537-3 0 9996 2 40379 99.1058 129.5890 0143889 258.9242 99.5774 15.11990444102974 EXOCUBE 1 40380U 15003E 16348.42985292 .00001620 00000-0 80965-4 0 9998 2 40380 99.1084 127.4036 0147101 265.2152 93.2263 15.10652908102744 DEORBITSAIL 1 40719U 15032E 16348.77228332 .00000543 00000-0 86555-4 0 9993 2 40719 97.9985 238.6440 0017328 23.5440 336.6559 14.75834842 76978 TIANWANG 1C (TW-1C) 1 40926U 15051B 16349.48274545 .00007858 00000-0 19978-3 0 9990 2 40926 97.2548 24.6135 0014146 113.9516 353.4491 15.39782920 68471 TIANWANG 1B (TW-1B) 1 40927U 15051C 16349.56481175 .00007616 00000-0 20038-3 0 9990 2 40927 97.2641 24.7843 0013710 121.6235 40.2996 15.38748074 68453 TIANWANG 1A (TW-1A) 1 40928U 15051D 16349.45202935 .00003313 00000-0 10062-3 0 9990 2 40928 97.2511 22.5372 0014404 135.3288 331.7491 15.34682605 68354 LEMUR-2-JOEL 1 40932U 15052C 16349.25269881 .00001307 00000-0 90986-4 0 9992 2 40932 6.0084 108.2841 0012874 159.7694 200.3260 14.77346682 65614 LEMUR-2-CHRIS 1 40933U 15052D 16349.13827802 .00000876 00000-0 31576-4 0 9993 2 40933 6.0050 108.3213 0013417 160.9681 199.1123 14.77495559 65606 LEMUR-2-JEROEN 1 40934U 15052E 16349.15861999 .00000864 00000-0 31346-4 0 9993 2 40934 6.0057 111.9010 0010131 147.1423 212.9689 14.76805275 65543 LEMUR-2-PETER 1 40935U 15052F 16349.08280355 .00000458 00000-0 -24923-4 0 9990 2 40935 6.0032 113.4181 0009516 142.8389 217.2461 14.76587889 65534 EXACTVIEW 9 1 40936U 15052G 16347.94768053 .00000955 00000-0 45220-4 0 9994 2 40936 6.0046 122.8801 0010030 118.1905 241.9646 14.76169115 65364 ATHENOXAT 1 1 41168U 15077C 16349.43844404 .00003107 00000-0 14191-3 0 9994 2 41168 14.9902 78.3655 0012476 337.6513 354.3112 15.10882567 55045 GALASSIA 1 41170U 15077E 16348.04440723 .00002139 00000-0 83903-4 0 9991 2 41170 14.9891 86.0399 0013816 333.2086 26.7521 15.11446535 54867 VELOX 2 1 41171U 15077F 16349.40687474 .00001742 00000-0 65944-4 0 9993 2 41171 14.9916 83.5828 0009366 318.4664 41.4945 15.09383467 55009 AGGIESAT 4 1 41313U 98067HP 16348.17556305 .00013318 00000-0 13326-3 0 9990 2 41313 51.6383 231.7468 0004889 149.8352 210.2926 15.65920391 49716 BEVO 2 1 41314U 98067HQ 16349.07675605 .00026636 00000-0 18876-3 0 9998 2 41314 51.6307 219.5454 0004877 155.6255 204.4976 15.73745164 49752 HORYU-IV 1 41340U 16012D 16348.98662868 .00000577 00000-0 38128-4 0 9992 2 41340 31.0041 206.4449 0014125 38.5553 321.6089 15.00357494 45178 OUFTI-1 1 41458U 16025C 16349.53125829 .00002470 00000-0 13738-3 0 9992 2 41458 98.2089 10.4469 0177583 185.5843 174.3389 15.02299562 34844 E-ST@R-II 1 41459U 16025D 16349.53700090 .00002649 00000-0 14687-3 0 9994 2 41459 98.2091 10.4295 0178572 185.8863 174.0239 15.02207323 34844 AAUSAT 4 1 41460U 16025E 16349.55663225 .00003566 00000-0 19842-3 0 9993 2 41460 98.1954 10.4920 0171034 185.1169 174.8297 15.02746554 34853 DIWATA-1 1 41463U 98067HT 16349.29073095 .00008207 00000-0 10977-3 0 9990 2 41463 51.6440 235.9975 0001419 138.4359 325.5236 15.58991955 35920 MINXSS 1 41474U 98067HU 16348.87439940 .00033886 00000-0 26848-3 0 9995 2 41474 51.6419 230.4571 0003912 132.5378 227.5951 15.70971194 33038 CADRE 1 41475U 98067HV 16349.12475059 .00243959 33784-4 67800-3 0 9992 2 41475 51.6292 220.7042 0007368 182.8540 177.2426 15.93262155 33180 STMSAT-1 1 41476U 98067HW 16349.09324616 .00038810 00000-0 29650-3 0 9991 2 41476 51.6358 228.8606 0004266 131.3323 228.8042 15.71771328 32988 NODES 2 1 41477U 98067HX 16348.16097036 .00021466 00000-0 21175-3 0 9995 2 41477 51.6367 236.8950 0003569 108.8263 251.3120 15.65868834 32796 NODES 1 1 41478U 98067HY 16349.12706182 .00017526 00000-0 17466-3 0 9992 2 41478 51.6363 232.0951 0003479 112.5736 247.5627 15.65767365 32942 FLOCK 2E'-1 1 41479U 98067HZ 16349.34080159 .00014541 00000-0 16789-3 0 9997 2 41479 51.6417 233.2960 0000476 276.9504 194.2113 15.62165987 32901 FLOCK 2E'-3 1 41480U 98067JA 16349.13285157 .00014394 00000-0 16468-3 0 9991 2 41480 51.6408 234.0828 0000899 68.6307 87.1027 15.62413829 32872 FLOCK 2E'-2 1 41481U 98067JB 16349.33958602 .00013530 00000-0 15324-3 0 9997 2 41481 51.6409 232.5410 0001048 237.4305 234.1280 15.62738989 32899 FLOCK 2E'-4 1 41482U 98067JC 16349.30119297 .00020680 00000-0 22743-3 0 9991 2 41482 51.6408 233.0504 0001322 83.2288 17.1960 15.63132820 32887 FLOCK 2E-1 1 41483U 98067JD 16349.33808138 .00013005 00000-0 15148-3 0 9998 2 41483 51.6440 233.3026 0002325 69.5801 41.1435 15.62052393 32753 FLOCK 2E-2 1 41484U 98067JE 16349.31930736 .00019247 00000-0 21945-3 0 9993 2 41484 51.6419 233.1954 0002730 87.3980 17.7396 15.62253501 32753 LEMUR-2-THERESACONDOR 1 41485U 98067JF 16349.14095211 .00067413 00000-0 46936-3 0 9990 2 41485 51.6391 228.1423 0004817 161.4642 330.8570 15.73716142 32766 FLOCK 2E-3 1 41486U 98067JG 16349.13900221 .00013660 00000-0 16295-3 0 9996 2 41486 51.6420 234.9460 0003385 110.4423 12.3373 15.61376254 32740 FLOCK 2E-4 1 41487U 98067JH 16349.27865922 .00013783 00000-0 16108-3 0 9999 2 41487 51.6426 233.6713 0003197 108.5045 345.8262 15.61903674 32779 LEMUR-2-NICK-ALLAIN 1 41488U 98067JJ 16349.23479262 .00061864 00000-0 44617-3 0 9993 2 41488 51.6393 228.1156 0005471 155.1614 294.5863 15.72922026 32771 LEMUR-2-KANE 1 41489U 98067JK 16349.14805148 .00062843 00000-0 44520-3 0 9991 2 41489 51.6414 228.1918 0003243 129.2921 4.1915 15.73346491 32017 LEMUR-2-JEFF 1 41490U 98067JL 16349.27746795 .00079132 00000-0 51302-3 0 9994 2 41490 51.6407 226.8627 0004172 125.6909 334.1981 15.75305696 32799 FLOCK 2E-6 1 41563U 98067JM 16347.92837416 .00019476 00000-0 23129-3 0 9997 2 41563 51.6429 241.1641 0001511 205.9678 244.9586 15.61184719 30613 FLOCK 2E-5 1 41564U 98067JN 16349.15066912 .00013077 00000-0 15725-3 0 9994 2 41564 51.6411 234.9930 0000658 234.1947 259.2408 15.61212085 30799 FLOCK 2E-7 1 41565U 98067JP 16349.14067983 .00015746 00000-0 17893-3 0 9996 2 41565 51.6411 234.1833 0004874 139.2195 343.9847 15.62499772 30708 FLOCK 2E-8 1 41566U 98067JQ 16349.14672742 .00023662 00000-0 21564-3 0 9998 2 41566 51.6415 231.9440 0005247 130.9511 0.6283 15.67768119 30729 FLOCK 2E'-5 1 41567U 98067JR 16349.13102700 .00012030 00000-0 14774-3 0 9992 2 41567 51.6422 235.5552 0004703 151.3179 6.4584 15.60745337 30655 FLOCK 2E'-6 1 41568U 98067JS 16349.13701590 .00015968 00000-0 18762-3 0 9999 2 41568 51.6411 234.8411 0004639 149.1105 7.4515 15.61618645 30693 FLOCK 2E'-8 1 41569U 98067JT 16349.13404139 .00016588 00000-0 18799-3 0 9998 2 41569 51.6409 234.0828 0002009 115.5033 38.8671 15.62531013 30584 FLOCK 2E'-7 1 41570U 98067JU 16349.28357733 .00020196 00000-0 21739-3 0 9991 2 41570 51.6420 232.9661 0003046 85.8627 10.6317 15.63699545 30638 FLOCK 2E-9 1 41571U 98067JV 16349.30197153 .00016239 00000-0 18027-3 0 9992 2 41571 51.6415 233.0671 0004435 131.4621 328.9264 15.63078658 30598 FLOCK 2E-10 1 41572U 98067JW 16349.33861436 .00015461 00000-0 17759-3 0 9995 2 41572 51.6432 233.2928 0004248 140.7149 330.4369 15.62239696 30599 FLOCK 2E-12 1 41573U 98067JX 16349.14506626 .00017675 00000-0 20107-3 0 9992 2 41573 51.6436 234.2175 0004485 154.2384 330.1127 15.62374176 30562 FLOCK 2E-11 1 41574U 98067JY 16349.29529231 .00014572 00000-0 16447-3 0 9991 2 41574 51.6413 233.0071 0004778 149.5572 309.6900 15.62748808 30591 FLOCK 2E'-9 1 41575U 98067JZ 16349.29487469 .00017564 00000-0 19534-3 0 9992 2 41575 51.6403 232.9922 0004403 166.6756 292.3264 15.62963521 30584 FLOCK 2E'-10 1 41576U 98067KA 16349.33599690 .00015258 00000-0 17313-3 0 9999 2 41576 51.6435 233.2829 0004839 170.8977 298.7087 15.62566472 30481 FLOCK 2E'-11 1 41577U 98067KB 16349.14293443 .00016352 00000-0 18619-3 0 9992 2 41577 51.6431 234.2182 0005393 145.9411 337.9552 15.62413439 30277 FLOCK 2E'-12 1 41578U 98067KC 16349.28633197 .00019677 00000-0 22219-3 0 9996 2 41578 51.6407 233.7079 0005184 136.5702 320.1393 15.62478463 30294 LEMUR-2-DRMUZZ 1 41595U 16019B 16348.83885962 .00026826 00000-0 22342-3 0 9992 2 41595 51.6381 230.1716 0001537 15.6211 344.4833 15.69904217 27431 LEMUR-2-BRIDGEMAN 1 41596U 16019C 16348.84939256 .00065664 00000-0 35911-3 0 9999 2 41596 51.6349 225.6803 0001980 124.0492 236.0698 15.79221953 27479 LEMUR-2-CUBECHEESE 1 41597U 16019D 16348.85363660 .00060804 00000-0 35555-3 0 9996 2 41597 51.6356 226.4723 0001896 156.8205 203.2881 15.77761256 27483 LEMUR-2-NATE 1 41598U 16019E 16348.16338366 .00071771 00000-0 39242-3 0 9998 2 41598 51.6337 229.3585 0002868 157.4150 202.6977 15.79189350 27386 FLOCK 2P-6 1 41606U 16040H 16349.17153400 .00002919 00000-0 13495-3 0 9998 2 41606 97.4852 47.2414 0011428 9.7530 350.3925 15.20917938 26578 FLOCK 2P-11 1 41608U 16040K 16349.30935640 .00003383 00000-0 15601-3 0 9996 2 41608 97.4849 47.3589 0011550 9.8607 350.2853 15.20889036 26534 FLOCK 2P-2 1 41609U 16040L 16349.18462795 .00002970 00000-0 13783-3 0 9999 2 41609 97.4855 47.2298 0011553 9.7020 350.4436 15.20767161 26497 FLOCK 2P-9 1 41610U 16040M 16349.38718485 .00002002 00000-0 94292-4 0 9994 2 41610 97.4852 47.4132 0011585 9.6276 350.5179 15.20652649 26402 FLOCK 2P-4 1 41611U 16040N 16349.23252552 .00001742 00000-0 81859-4 0 9992 2 41611 97.4872 47.3660 0012084 17.9721 342.1939 15.20895528 26543 FLOCK 2P-10 1 41612U 16040P 16349.40466031 .00001775 00000-0 83301-4 0 9991 2 41612 97.4877 47.6020 0011809 17.9456 342.2194 15.20918964 26578 FLOCK 2P-8 1 41613U 16040Q 16349.29129208 .00002042 00000-0 95359-4 0 9995 2 41613 97.4873 47.4419 0011855 17.6598 342.5047 15.20912339 26558 FLOCK 2P-12 1 41614U 16040R 16349.12834485 .00000848 00000-0 41161-4 0 9992 2 41614 97.4882 47.3733 0011385 18.2660 341.8983 15.21175647 26535 FLOCK 2P-7 1 41615U 16040S 16349.41810401 .00002242 00000-0 10452-3 0 9995 2 41615 97.4873 47.5742 0011816 18.6766 341.4901 15.20873360 26574 FLOCK 2P-5 1 41616U 16040T 16349.13538661 .00001193 00000-0 56801-4 0 9993 2 41616 97.4882 47.3626 0011505 18.2358 341.9288 15.21060217 26519 FLOCK 2P-1 1 41617U 16040U 16349.12733392 .00002383 00000-0 10988-3 0 9998 2 41617 97.4883 47.3709 0011270 19.0160 341.1494 15.21197100 26537 FLOCK 2P-3 1 41618U 16040V 16349.47729903 .00002237 00000-0 10420-3 0 9999 2 41618 97.4882 47.6702 0011412 17.6649 342.4981 15.20908256 26588 BEESAT-4 1 41619U 16040W 16348.45711851 .00001738 00000-0 83936-4 0 9998 2 41619 97.4894 46.4687 0012295 4.8599 355.2753 15.19955645 14378 3CAT-2 1 41732U 16051B 16349.55739733 .00001966 00000-0 83451-4 0 9992 2 41732 97.3770 263.3517 0013164 198.2218 279.4815 15.24206988 18409 FLOCK 2E'-13 1 41761U 98067KH 16349.15169648 .00008745 00000-0 12622-3 0 9992 2 41761 51.6442 239.4720 0006388 290.2601 224.8755 15.56820571 14047 FLOCK 2E'-14 1 41762U 98067KJ 16349.14842703 .00009509 00000-0 13630-3 0 9991 2 41762 51.6443 239.4562 0006642 289.2101 223.5371 15.56887764 14046 FLOCK 2E'-16 1 41763U 98067KK 16349.15275600 .00010890 00000-0 15468-3 0 9995 2 41763 51.6446 239.4836 0005650 302.2254 210.9851 15.56960983 14001 FLOCK 2E'-15 1 41764U 98067KL 16349.15428856 .00008853 00000-0 12777-3 0 9995 2 41764 51.6438 239.4974 0006098 301.8330 211.0661 15.56806582 14008 FLOCK 2E'-18 1 41769U 98067KM 16349.14272076 .00008792 00000-0 12649-3 0 9990 2 41769 51.6436 239.4805 0005297 329.1584 151.1247 15.56904283 14009 FLOCK 2E'-17 1 41776U 98067KN 16349.19668005 .00010100 00000-0 14406-3 0 9993 2 41776 51.6449 239.1856 0005362 325.7342 108.6832 15.56946289 14000 FLOCK 2E'-19 1 41777U 98067KP 16349.12630751 .00019838 00000-0 26853-3 0 9990 2 41777 51.6471 239.3087 0004995 347.9439 162.6783 15.57693125 13955 FLOCK 2E'-20 1 41782U 98067KQ 16349.19506591 .00013389 00000-0 18494-3 0 9994 2 41782 51.6430 239.0384 0004412 323.3199 175.3454 15.57490894 13839 CANX-7 1 41788U 16059F 16349.15525348 .00000153 00000-0 38635-4 0 9993 2 41788 98.1953 46.2913 0030268 24.4078 335.8580 14.63651281 11522 ALSAT 1N 1 41789U 16059G 16349.34228521 .00000131 00000-0 34253-4 0 9996 2 41789 98.1946 46.5209 0028935 17.9567 342.2654 14.63987660 11565 RAVAN 1 41849U 16067B 16349.17769457 .00000260 00000-0 28198-4 0 9995 2 41849 97.9687 58.0785 0008508 187.3210 172.7887 14.96566621 4831 2016-067C 1 41850U 16067C 16349.18084488 -.00000213 00000-0 -13399-4 0 9999 2 41850 97.9692 58.0765 0008643 185.8886 174.2234 14.96397403 4832 2016-067D 1 41851U 16067D 16348.77995033 -.00000305 00000-0 -21524-4 0 9992 2 41851 97.9694 57.6677 0008646 188.2397 171.8683 14.96377956 4774 AEROCUBE 8D 1 41852U 16067E 16348.45325995 -.00000048 00000-0 11206-5 0 9992 2 41852 97.9671 57.3173 0008936 192.4671 167.6339 14.96019512 4729 AEROCUBE 8C 1 41853U 16067F 16348.45404704 -.00000041 00000-0 18083-5 0 9992 2 41853 97.9686 57.3160 0009213 194.7657 165.3296 14.95982137 4728 PROMETHEUS 2-1 1 41854U 16067G 16349.19285059 .00000373 00000-0 38808-4 0 9998 2 41854 97.9699 58.0621 0010495 187.8774 172.2283 14.95848753 4830 PROMETHEUS 2-3 1 41855U 16067H 16349.19310237 .00000351 00000-0 36838-4 0 9993 2 41855 97.9699 58.0623 0010681 188.3423 171.7622 14.95837712 4831 LEMUR-2-XIAOQING 1 41871U 16062C 16349.13363076 .00002199 00000-0 11211-3 0 9998 2 41871 51.6372 245.2550 0005951 307.3381 205.3059 15.21083523 2764 LEMUR-2-SOKOLSKY 1 41872U 16062D 16349.13205531 .00003227 00000-0 15745-3 0 9999 2 41872 51.6358 245.2580 0006101 307.4809 198.4645 15.21136736 2753 LEMUR-2-ANUBHAVTHAKUR 1 41873U 16062E 16349.19667728 .00000514 00000-0 37480-4 0 9993 2 41873 51.6360 244.9615 0005841 307.5823 188.2022 15.21030545 2756 LEMUR-2-WINGO 1 41874U 16062F 16349.13373024 .00001928 00000-0 10012-3 0 9992 2 41874 51.6369 245.2574 0005907 307.7983 204.3648 15.21076781 2752
